{
  "type": "FeatureCollection",
  "features": [
    {
      "type": "Feature",
      "properties": {
        "norad_id": 66554,
        "name": "GLOBAL-33",
        "group": "last-30-days",
        "lat": -21.438147261279045,
        "lon": -7.161826166446567,
        "alt_km": 475.08604585336525,
        "timestamp": "2025-12-19T08:58:48.081664+00:00",
        "meta_object_name": "GLOBAL-33",
        "meta_object_id": "2025-267A",
        "meta_epoch": "2025-12-18T12:46:43.636800",
        "meta_mean_motion": 15.31616871,
        "meta_eccentricity": 0.00032005,
        "meta_inclination": 42.0244,
        "meta_ra_of_asc_node": 23.55,
        "meta_arg_of_pericenter": 137.3862,
        "meta_mean_anomaly": 222.7224,
        "meta_ephemeris_type": 0,
        "meta_classification_type": "U",
        "meta_norad_cat_id": 66554,
        "meta_element_set_no": 999,
        "meta_rev_at_epoch": 429,
        "meta_bstar": 0.00035788106,
        "meta_mean_motion_dot": 0.00010928,
        "meta_mean_motion_ddot": 0,
        "tle_line1": "1 66554U 25267A   25352.53244950  .00010928  00000+0  35788-3 0  9990",
        "tle_line2": "2 66554  42.0244  23.5500 0003200 137.3862 222.7224 15.31616871  4299"
      },
      "geometry": {
        "type": "Point",
        "coordinates": [
          -7.161826166446567,
          -21.438147261279045
        ]
      }
    },
    {
      "type": "Feature",
      "properties": {
        "norad_id": 66555,
        "name": "ELECTRON KICK STAGE R/B",
        "group": "last-30-days",
        "lat": 37.11023126844695,
        "lon": 75.62358216868934,
        "alt_km": 457.0998749315404,
        "timestamp": "2025-12-19T08:58:48.081675+00:00",
        "meta_object_name": "ELECTRON KICK STAGE R/B",
        "meta_object_id": "2025-267B",
        "meta_epoch": "2025-12-18T23:19:10.835616",
        "meta_mean_motion": 15.33100254,
        "meta_eccentricity": 0.00067924,
        "meta_inclination": 42.0195,
        "meta_ra_of_asc_node": 20.784,
        "meta_arg_of_pericenter": 104.5342,
        "meta_mean_anomaly": 255.6249,
        "meta_ephemeris_type": 0,
        "meta_classification_type": "U",
        "meta_norad_cat_id": 66555,
        "meta_element_set_no": 999,
        "meta_rev_at_epoch": 436,
        "meta_bstar": 0.00063018599,
        "meta_mean_motion_dot": 0.00020407,
        "meta_mean_motion_ddot": 0,
        "tle_line1": "1 66555U 25267B   25352.97165319  .00020407  00000+0  63019-3 0  9991",
        "tle_line2": "2 66555  42.0195  20.7840 0006792 104.5342 255.6249 15.33100254  4364"
      },
      "geometry": {
        "type": "Point",
        "coordinates": [
          75.62358216868934,
          37.11023126844695
        ]
      }
    },
    {
      "type": "Feature",
      "properties": {
        "norad_id": 66557,
        "name": "STARLINK-35699",
        "group": "last-30-days",
        "lat": 42.549847206381514,
        "lon": -177.68043470643528,
        "alt_km": 409.4296977984841,
        "timestamp": "2025-12-19T08:58:48.081687+00:00",
        "meta_object_name": "STARLINK-35699",
        "meta_object_id": "2025-268A",
        "meta_epoch": "2025-12-18T15:33:30.845952",
        "meta_mean_motion": 15.50637255,
        "meta_eccentricity": 0.00027518,
        "meta_inclination": 43.0007,
        "meta_ra_of_asc_node": 86.6453,
        "meta_arg_of_pericenter": 262.8822,
        "meta_mean_anomaly": 97.1726,
        "meta_ephemeris_type": 0,
        "meta_classification_type": "U",
        "meta_norad_cat_id": 66557,
        "meta_element_set_no": 999,
        "meta_rev_at_epoch": 554,
        "meta_bstar": 0.0019900857,
        "meta_mean_motion_dot": 0.00118442,
        "meta_mean_motion_ddot": 0,
        "tle_line1": "1 66557U 25268A   25352.64827368  .00118442  00000+0  19901-2 0  9994",
        "tle_line2": "2 66557  43.0007  86.6453 0002751 262.8822  97.1726 15.50637255  5547"
      },
      "geometry": {
        "type": "Point",
        "coordinates": [
          -177.68043470643528,
          42.549847206381514
        ]
      }
    },
    {
      "type": "Feature",
      "properties": {
        "norad_id": 66558,
        "name": "STARLINK-35695",
        "group": "last-30-days",
        "lat": 42.282735287948206,
        "lon": -174.99359052878518,
        "alt_km": 409.59711321486975,
        "timestamp": "2025-12-19T08:58:48.081697+00:00",
        "meta_object_name": "STARLINK-35695",
        "meta_object_id": "2025-268B",
        "meta_epoch": "2025-12-18T15:33:01.453536",
        "meta_mean_motion": 15.50675208,
        "meta_eccentricity": 0.00030746,
        "meta_inclination": 43.0007,
        "meta_ra_of_asc_node": 86.6426,
        "meta_arg_of_pericenter": 282.1097,
        "meta_mean_anomaly": 77.9418,
        "meta_ephemeris_type": 0,
        "meta_classification_type": "U",
        "meta_norad_cat_id": 66558,
        "meta_element_set_no": 999,
        "meta_rev_at_epoch": 554,
        "meta_bstar": 0.0019407607,
        "meta_mean_motion_dot": 0.00115616,
        "meta_mean_motion_ddot": 0,
        "tle_line1": "1 66558U 25268B   25352.64793349  .00115616  00000+0  19408-2 0  9998",
        "tle_line2": "2 66558  43.0007  86.6426 0003074 282.1097  77.9418 15.50675208  5540"
      },
      "geometry": {
        "type": "Point",
        "coordinates": [
          -174.99359052878518,
          42.282735287948206
        ]
      }
    },
    {
      "type": "Feature",
      "properties": {
        "norad_id": 66559,
        "name": "STARLINK-35419",
        "group": "last-30-days",
        "lat": 41.988160916501194,
        "lon": -172.58554439649913,
        "alt_km": 409.4696360923681,
        "timestamp": "2025-12-19T08:58:48.081707+00:00",
        "meta_object_name": "STARLINK-35419",
        "meta_object_id": "2025-268C",
        "meta_epoch": "2025-12-18T15:32:31.605792",
        "meta_mean_motion": 15.50639958,
        "meta_eccentricity": 0.00026393,
        "meta_inclination": 43.0014,
        "meta_ra_of_asc_node": 86.64,
        "meta_arg_of_pericenter": 262.8994,
        "meta_mean_anomaly": 97.1566,
        "meta_ephemeris_type": 0,
        "meta_classification_type": "U",
        "meta_norad_cat_id": 66559,
        "meta_element_set_no": 999,
        "meta_rev_at_epoch": 554,
        "meta_bstar": 0.0017569422,
        "meta_mean_motion_dot": 0.00104347,
        "meta_mean_motion_ddot": 0,
        "tle_line1": "1 66559U 25268C   25352.64758803  .00104347  00000+0  17569-2 0  9990",
        "tle_line2": "2 66559  43.0014  86.6400 0002639 262.8994  97.1566 15.50639958  5548"
      },
      "geometry": {
        "type": "Point",
        "coordinates": [
          -172.58554439649913,
          41.988160916501194
        ]
      }
    },
    {
      "type": "Feature",
      "properties": {
        "norad_id": 66560,
        "name": "STARLINK-35411",
        "group": "last-30-days",
        "lat": 41.63967136562311,
        "lon": -170.185210241536,
        "alt_km": 408.8140372565322,
        "timestamp": "2025-12-19T08:58:48.081719+00:00",
        "meta_object_name": "STARLINK-35411",
        "meta_object_id": "2025-268D",
        "meta_epoch": "2025-12-18T13:59:16.855008",
        "meta_mean_motion": 15.50619101,
        "meta_eccentricity": 0.00012512,
        "meta_inclination": 43.0007,
        "meta_ra_of_asc_node": 87.0147,
        "meta_arg_of_pericenter": 266.9937,
        "meta_mean_anomaly": 93.078,
        "meta_ephemeris_type": 0,
        "meta_classification_type": "U",
        "meta_norad_cat_id": 66560,
        "meta_element_set_no": 999,
        "meta_rev_at_epoch": 553,
        "meta_bstar": 0.0011242099,
        "meta_mean_motion_dot": 0.00066265,
        "meta_mean_motion_ddot": 0,
        "tle_line1": "1 66560U 25268D   25352.58283397  .00066265  00000+0  11242-2 0  9994",
        "tle_line2": "2 66560  43.0007  87.0147 0001251 266.9937  93.0780 15.50619101  5536"
      },
      "geometry": {
        "type": "Point",
        "coordinates": [
          -170.185210241536,
          41.63967136562311
        ]
      }
    },
    {
      "type": "Feature",
      "properties": {
        "norad_id": 66561,
        "name": "STARLINK-35305",
        "group": "last-30-days",
        "lat": 40.725852533886524,
        "lon": -165.12309558504614,
        "alt_km": 409.3644401930251,
        "timestamp": "2025-12-19T08:58:48.081730+00:00",
        "meta_object_name": "STARLINK-35305",
        "meta_object_id": "2025-268E",
        "meta_epoch": "2025-12-18T15:31:02.812512",
        "meta_mean_motion": 15.50641738,
        "meta_eccentricity": 0.00023258,
        "meta_inclination": 43.0007,
        "meta_ra_of_asc_node": 86.6322,
        "meta_arg_of_pericenter": 257.0503,
        "meta_mean_anomaly": 103.0097,
        "meta_ephemeris_type": 0,
        "meta_classification_type": "U",
        "meta_norad_cat_id": 66561,
        "meta_element_set_no": 999,
        "meta_rev_at_epoch": 554,
        "meta_bstar": 0.0016955293,
        "meta_mean_motion_dot": 0.00100644,
        "meta_mean_motion_ddot": 0,
        "tle_line1": "1 66561U 25268E   25352.64656033  .00100644  00000+0  16955-2 0  9999",
        "tle_line2": "2 66561  43.0007  86.6322 0002325 257.0503 103.0097 15.50641738  5545"
      },
      "geometry": {
        "type": "Point",
        "coordinates": [
          -165.12309558504614,
          40.725852533886524
        ]
      }
    }
  ]
}